*******************************************************************************
JPL/HORIZONS               451 Patientia (A899 XA)         2020-Jun-22 09:08:10
Rec #:     451 (+COV) Soln.date: 2020-May-20_01:05:53   # obs: 3174 (1899-2020)
 
IAU76/J2000 helio. ecliptic osc. elements (au, days, deg., period=Julian yrs):
 
  EPOCH=  2453251.5 ! 2004-Sep-03.00 (TDB)         Residual RMS= .31717
   EC= .07742742347809593  QR= 2.822471551130449   TP= 2454148.3593160729
   OM= 89.40980010707182   W=  340.9346820785823   IN= 15.22339120534374
   A= 3.059349066900686    MA= 194.8095830299417   ADIST= 3.296226582670923
   PER= 5.35121            N= .184187653           ANGMOM= .029997858
   DAN= 2.83364            DDN= 3.28112            L= 70.9675122
   B= -4.920399            MOID= 1.84161997        TP= 2007-Feb-16.8593160729
 
Asteroid physical parameters (km, seconds, rotational period in hours):
   GM= n.a.                RAD= 126.95             ROTPER= 9.727
   H= 6.7                  G= .190                 B-V= .666
                           ALBEDO= .085            STYP= CU
 
ASTEROID comments: 
1: soln ref.= JPL#117, OCC=0
2: source=ORB
*******************************************************************************
 
 
*******************************************************************************
Ephemeris / WWW_USER Mon Jun 22 09:08:10 2020 Pasadena, USA      / Horizons
*******************************************************************************
Target body name: 451 Patientia (A899 XA)         {source: JPL#117}
Center body name: Solar System Barycenter (0)     {source: DE431}
Center-site name: BODY CENTER
*******************************************************************************
Start time      : A.D. 1969-Jun-28 00:00:00.0000 TDB
Stop  time      : A.D. 2071-May-04 00:00:00.0000 TDB
Step-size       : 7200 minutes
*******************************************************************************
Center geodetic : 0.00000000,0.00000000,0.0000000 {E-lon(deg),Lat(deg),Alt(km)}
Center cylindric: 0.00000000,0.00000000,0.0000000 {E-lon(deg),Dxy(km),Dz(km)}
Center radii    : (undefined)                                                  
Small perturbers: Yes                             {source: SB431-N16}
Output units    : AU-D
Output type     : GEOMETRIC cartesian states
Output format   : 2 (position and velocity)
Reference frame : Ecliptic of J2000.0
*******************************************************************************
Initial IAU76/J2000 heliocentric ecliptic osculating elements (au, days, deg.):
  EPOCH=  2453251.5 ! 2004-Sep-03.00 (TDB)         Residual RMS= .31717        
   EC= .07742742347809593  QR= 2.822471551130449   TP= 2454148.3593160729      
   OM= 89.40980010707182   W=  340.9346820785823   IN= 15.22339120534374       
  Equivalent ICRF heliocentric equatorial cartesian coordinates (au, au/d):
   X=-3.835277905694414E-01  Y=-3.034011985176509E+00  Z=-1.211631212412656E+00
  VX= 8.754644984775895E-03 VY= 9.714560137533352E-05 VZ=-2.557276901727131E-03
Asteroid physical parameters (km, seconds, rotational period in hours):        
   GM= n.a.                RAD= 126.95             ROTPER= 9.727               
   H= 6.7                  G= .190                 B-V= .666                   
                           ALBEDO= .085            STYP= CU                    
*******************************************************************************
            JDTDB,            Calendar Date (TDB),        delta-T,                      X,                      Y,                      Z,                     VX,                     VY,                     VZ,
******************************************************************************************************************************************************************************************************************
$$SOE
2445580.500000000, A.D. 1983-Sep-03 00:00:00.0000,      54.182562,  1.023802630100165E+00, -3.038684124084100E+00, -2.822613319261406E-01,  8.349365915106034E-03,  3.445859333531575E-03, -2.270970787881692E-03,
2445585.500000000, A.D. 1983-Sep-08 00:00:00.0000,      54.182493,  1.065435230570176E+00, -3.021119698601009E+00, -2.935846371534261E-01,  8.303353396868987E-03,  3.579825146304574E-03, -2.258263929573588E-03,
2445590.500000000, A.D. 1983-Sep-13 00:00:00.0000,      54.182436,  1.106832956307667E+00, -3.002886752332546E+00, -3.048430978065141E-01,  8.255416230652656E-03,  3.713263126892040E-03, -2.245033024412660E-03,
2445595.500000000, A.D. 1983-Sep-18 00:00:00.0000,      54.182388,  1.147986187420971E+00, -2.983987992384002E+00, -3.160340947038445E-01,  8.205555799942447E-03,  3.846146071004190E-03, -2.231278505449979E-03,
2445600.500000000, A.D. 1983-Sep-23 00:00:00.0000,      54.182350,  1.188885311604078E+00, -2.964426262281176E+00, -3.271550110101225E-01,  8.153773756585577E-03,  3.978446614551804E-03, -2.217000878435448E-03,
2445605.500000000, A.D. 1983-Sep-28 00:00:00.0000,      54.182325,  1.229520725494614E+00, -2.944204542771959E+00, -3.382032326042834E-01,  8.100072027281940E-03,  4.110137232622497E-03, -2.202200723616152E-03,
2445610.500000000, A.D. 1983-Oct-03 00:00:00.0000,      54.182314,  1.269882836064522E+00, -2.923325952632800E+00, -3.491761484565762E-01,  8.044452820153028E-03,  4.241190238568975E-03, -2.186878697579517E-03,
2445615.500000000, A.D. 1983-Oct-08 00:00:00.0000,      54.182316,  1.309962062043627E+00, -2.901793749479137E+00, -3.600711510149309E-01,  7.986918631334361E-03,  4.371577783373208E-03, -2.171035535123828E-03,
2445620.500000000, A.D. 1983-Oct-13 00:00:00.0000,      54.182331,  1.349748835376337E+00, -2.879611330577931E+00, -3.708856366007199E-01,  7.927472251650003E-03,  4.501271855445931E-03, -2.154672051144551E-03,
2445625.500000000, A.D. 1983-Oct-18 00:00:00.0000,      54.182356,  1.389233602712247E+00, -2.856782233660242E+00, -3.816170058140224E-01,  7.866116773529462E-03,  4.630244280776821E-03, -2.137789142552163E-03,
2445630.500000000, A.D. 1983-Oct-23 00:00:00.0000,      54.182393,  1.428406826932054E+00, -2.833310137732631E+00, -3.922626639485992E-01,  7.802855598202634E-03,  4.758466723235785E-03, -2.120387790241238E-03,
2445635.500000000, A.D. 1983-Oct-28 00:00:00.0000,      54.182442,  1.467258988710016E+00, -2.809198863886800E+00, -4.028200214168456E-01,  7.737692443113896E-03,  4.885910684972107E-03, -2.102469061112764E-03,
2445640.500000000, A.D. 1983-Nov-02 00:00:00.0000,      54.182504,  1.505780588113889E+00, -2.784452376106904E+00, -4.132864941849800E-01,  7.670631349492077E-03,  5.012547506963849E-03, -2.084034110142266E-03,
2445645.500000000, A.D. 1983-Nov-07 00:00:00.0000,      54.182579,  1.543962146243080E+00, -2.759074782073621E+00, -4.236595042186690E-01,  7.601676690067601E-03,  5.138348369763539E-03, -2.065084182489827E-03,
2445650.500000000, A.D. 1983-Nov-12 00:00:00.0000,      54.182664,  1.581794206905754E+00, -2.733070333963985E+00, -4.339364799393161E-01,  7.530833176934820E-03,  5.263284294455895E-03, -2.045620615651143E-03,
2445655.500000000, A.D. 1983-Nov-17 00:00:00.0000,      54.182758,  1.619267338335600E+00, -2.706443429245871E+00, -4.441148566911991E-01,  7.458105869554429E-03,  5.387326143832666E-03, -2.025644841649096E-03,
2445660.500000000, A.D. 1983-Nov-22 00:00:00.0000,      54.182860,  1.656372134948934E+00, -2.679198611466059E+00, -4.541920772196670E-01,  7.383500182879430E-03,  5.510444623793207E-03, -2.005158389263735E-03,
2445665.500000000, A.D. 1983-Nov-27 00:00:00.0000,      54.182971,  1.693099219142685E+00, -2.651340571030683E+00, -4.641655921605694E-01,  7.307021895579126E-03,  5.632610284995382E-03, -1.984162886294774E-03,
2445670.500000000, A.D. 1983-Dec-02 00:00:00.0000,      54.183092,  1.729439243133706E+00, -2.622874145976703E+00, -4.740328605410630E-01,  7.228677158347256E-03,  5.753793524803423E-03, -1.962660061848333E-03,
2445675.500000000, A.D. 1983-Dec-07 00:00:00.0000,      54.183221,  1.765382890839865E+00, -2.593804322732789E+00, -4.837913502919005E-01,  7.148472502305970E-03,  5.873964589581308E-03, -1.940651748641381E-03,
2445680.500000000, A.D. 1983-Dec-12 00:00:00.0000,      54.183355,  1.800920879803506E+00, -2.564136236867828E+00, -4.934385387712821E-01,  7.066414847567500E-03,  5.993093577350825E-03, -1.918139885326835E-03,
2445685.500000000, A.D. 1983-Dec-17 00:00:00.0000,      54.183492,  1.836043963158253E+00, -2.533875173825320E+00, -5.029719133004232E-01,  6.982511512016969E-03,  6.111150440757454E-03, -1.895126518855258E-03,
2445690.500000000, A.D. 1983-Dec-22 00:00:00.0000,      54.183633,  1.870742931640373E+00, -2.503026569642406E+00, -5.123889717110639E-01,  6.896770220352929E-03,  6.228104990240023E-03, -1.871613806894561E-03,
2445695.500000000, A.D. 1983-Dec-27 00:00:00.0000,      54.183777,  1.905008615645880E+00, -2.471596011652756E+00, -5.216872229052484E-01,  6.809199113326439E-03,  6.343926897301197E-03, -1.847604020319805E-03,
2445700.500000000, A.D. 1984-Jan-01 00:00:00.0000,      54.183924,  1.938831887334061E+00, -2.439589239172822E+00, -5.308641874277046E-01,  6.719806757039632E-03,  6.458585697910806E-03, -1.823099545753960E-03,
2445705.500000000, A.D. 1984-Jan-06 00:00:00.0000,      54.184073,  1.972203662777303E+00, -2.407012144170341E+00, -5.399173980509467E-01,  6.628602152158574E-03,  6.572050796253249E-03, -1.798102888109961E-03,
2445710.500000000, A.D. 1984-Jan-11 00:00:00.0000,      54.184221,  2.005114904156815E+00, -2.373870771912749E+00, -5.488444003730172E-01,  6.535594743078535E-03,  6.684291469029527E-03, -1.772616673104409E-03,
2445715.500000000, A.D. 1984-Jan-16 00:00:00.0000,      54.184365,  2.037556622004452E+00, -2.340171321592777E+00, -5.576427534277927E-01,  6.440794427234565E-03,  6.795276870246883E-03, -1.746643649775788E-03,
